[{"OBJECT_NAME":"SHIYAN-30 02","OBJECT_ID":"2025-222B","EPOCH":"2026-03-09T20:48:28.945152","MEAN_MOTION":14.93183187,"ECCENTRICITY":0.00052159,"INCLINATION":34.9961,"RA_OF_ASC_NODE":137.653,"ARG_OF_PERICENTER":257.9316,"MEAN_ANOMALY":102.0805,"EPHEMERIS_TYPE":0,"CLASSIFICATION_TYPE":"U","NORAD_CAT_ID":65852,"ELEMENT_SET_NO":999,"REV_AT_EPOCH":2417,"BSTAR":0.0003172838,"MEAN_MOTION_DOT":3.351e-5,"MEAN_MOTION_DDOT":0},{"OBJECT_NAME":"TITAN 3C TRANSTAGE DEB","OBJECT_ID":"1965-082DU","EPOCH":"2026-03-09T09:33:53.513856","MEAN_MOTION":14.8903252,"ECCENTRICITY":0.00240213,"INCLINATION":32.2879,"RA_OF_ASC_NODE":184.1352,"ARG_OF_PERICENTER":225.4976,"MEAN_ANOMALY":134.3716,"EPHEMERIS_TYPE":0,"CLASSIFICATION_TYPE":"U","NORAD_CAT_ID":1829,"ELEMENT_SET_NO":999,"REV_AT_EPOCH":20563,"BSTAR":0.00040055957,"MEAN_MOTION_DOT":3.913e-5,"MEAN_MOTION_DDOT":0}]
